{
"type": "FeatureCollection",
"name": "basement_domains",
"crs": { "type": "name", "properties": { "name": "urn:ogc:def:crs:OGC:1.3:CRS84" } },
"features": [
{ "type": "Feature", "properties": { "Study_Region_Name": "Central and Southwest", "Domain_Name": "Great Plains", "Alternate_Name": "Yavapai", "Crust_Type": "Lateral-extensional orogen", "Crust_Formation_Age": "1800-1720 Ma", "Accretion_Type": "<Null>", "Accretion_Age": "1.71-1.68 Ga", "Notes": "<Null>", "domain": "Great Plains" }, "geometry": { "type": "Polygon", "coordinates": [ [ [ -85.261918960991125, 44.658047864717332 ], [ -85.121479702526074, 44.624315360465687 ], [ -84.959432282173907, 44.648135770949239 ], [ -84.53653659948435, 44.953730463590205 ], [ -84.35340659273993, 44.864412451873307 ], [ -83.713393622017918, 44.921134772551852 ], [ -83.61535304530662, 44.882669777588319 ], [ -83.535108410624503, 44.806643512788071 ], [ -84.039542117674443, 44.574213331580154 ], [ -85.379331996674182, 43.872531534203119 ], [ -85.754603233252453, 43.708336889835778 ], [ -86.134917860670555, 43.57533790971695 ], [ -86.748153701831711, 43.455371611510827 ], [ -86.987739094283597, 43.430180030783959 ], [ -87.555452812896874, 43.425172615523934 ], [ -88.084924160121716, 43.373365625823112 ], [ -88.335918282802368, 43.322517719017696 ], [ -88.551702876286583, 43.243646519971094 ], [ -88.852508992895537, 43.055927503051976 ], [ -89.32387007954037, 42.875592352705098 ], [ -89.985736067865105, 42.572121833555968 ], [ -90.605647856263431, 42.168323100730674 ], [ -91.490835125540457, 41.499695832996451 ], [ -92.076477482049995, 41.175322372429719 ], [ -92.698632144557678, 40.720079280834284 ], [ -94.378936443362022, 40.028089440275608 ], [ -94.621638879730369, 40.028975401094044 ], [ -94.774119861642134, 40.075783221418703 ], [ -95.03900698558374, 40.060853798264361 ], [ -95.886545813738167, 39.934591760101796 ], [ -96.345064291983363, 39.912720079768008 ], [ -96.485323512469961, 39.96905751489254 ], [ -96.504093064143433, 39.956530153943618 ], [ -96.515818465449684, 40.017568163739952 ], [ -96.568510336782481, 40.041551972945342 ], [ -96.787348810299193, 40.006100860666379 ], [ -96.934364255106118, 39.947081789293293 ], [ -96.955406397187346, 39.94809940995998 ], [ -96.94762364621414, 39.979827703985507 ], [ -97.037171491371055, 39.986221754230712 ], [ -97.3294465823937, 39.91092884159292 ], [ -97.491785636697614, 39.826819147385891 ], [ -97.582880859863621, 39.7353659382876 ], [ -97.662127959337681, 39.734029415325438 ], [ -97.683850266776233, 39.711759171648623 ], [ -97.802046654229571, 39.581794798191538 ], [ -97.770238016571057, 39.458515488399257 ], [ -98.210287001044094, 39.049602400130823 ], [ -98.540593884500026, 38.663040754427414 ], [ -99.005252037051719, 38.388623554333719 ], [ -100.24383738318852, 37.740098883556811 ], [ -102.335550739674773, 36.73082455051275 ], [ -103.731294987573449, 36.201441061655828 ], [ -104.048675427828584, 36.132005446094638 ], [ -104.422442078838742, 35.995598753979493 ], [ -104.753457686522893, 35.813542480201477 ], [ -105.371425705431818, 35.628804045870197 ], [ -105.761658089648961, 35.451789130464192 ], [ -105.84267837700537, 35.447881815393657 ], [ -106.001713817638404, 35.521353562217314 ], [ -106.465302053946459, 35.497304277870285 ], [ -106.713964944126701, 35.553847217075599 ], [ -106.88108407227196, 35.695336126461257 ], [ -106.928399571582815, 35.918219755937173 ], [ -107.523718877923727, 35.800148228558044 ], [ -107.712972977320874, 35.732245984065059 ], [ -108.572916399971746, 35.199555361590853 ], [ -108.825483941430605, 35.00180066516873 ], [ -109.346892435737175, 34.735461941015956 ], [ -110.103854504381729, 34.461525914189735 ], [ -111.287266762251136, 33.903671333665272 ], [ -112.276172215375311, 33.552639956768758 ], [ -112.443358153256042, 33.76110556077316 ], [ -112.653824824356036, 33.972015877331046 ], [ -112.816743654495895, 34.271476663017722 ], [ -112.862399293092778, 34.563833354026258 ], [ -112.82352657968778, 34.865262740383343 ], [ -112.552978140728442, 35.553542538457577 ], [ -111.75168334610936, 36.781871946733133 ], [ -111.553545216538339, 37.125619266516082 ], [ -111.438476251177917, 37.435196087929285 ], [ -111.294715031972999, 37.669706696007381 ], [ -110.985953453189154, 38.069054437612351 ], [ -110.652790950641702, 38.65841607803975 ], [ -109.97892164981414, 39.478645073111807 ], [ -109.630476542358394, 39.995876682363189 ], [ -109.243297981516491, 40.391843751887791 ], [ -108.859886409130354, 40.656240878413996 ], [ -108.567761828645303, 40.823288378256223 ], [ -107.986066533643452, 40.96021622210111 ], [ -107.553417670988551, 41.09445900148188 ], [ -107.23431947076682, 41.135035374383165 ], [ -106.831181590357971, 41.134789961088018 ], [ -106.447365219629035, 41.196987389456638 ], [ -105.833884042514399, 41.439732516642493 ], [ -105.31681233632014, 41.694793072342577 ], [ -103.832780483032707, 42.638863023609815 ], [ -103.464278957907425, 42.830582650369195 ], [ -103.097262327694125, 42.962424849627268 ], [ -102.365446970800917, 43.15582909093996 ], [ -102.063606787622973, 43.213799561800499 ], [ -101.581002844405589, 43.227980418961351 ], [ -100.058985285342487, 43.006468672891117 ], [ -98.797159677776733, 42.584816829932947 ], [ -97.844966074024967, 42.166497682022566 ], [ -97.555293196523678, 42.385174059035762 ], [ -97.325165764488304, 42.411239652188385 ], [ -97.117499302550641, 42.470748398120236 ], [ -96.98069088867345, 42.610440810095497 ], [ -96.74556715969652, 42.774240317536794 ], [ -94.498124096849438, 43.556468493726186 ], [ -94.108688534448163, 43.806662843915262 ], [ -94.06367470422407, 43.686102051568582 ], [ -93.789628314395031, 43.4876634800857 ], [ -93.902194949437217, 43.391167921562499 ], [ -93.997571790005964, 43.205555415450249 ], [ -94.256935687132113, 42.999600487472662 ], [ -94.335704794240712, 42.861616838646341 ], [ -94.450236680877993, 42.788185463288642 ], [ -94.522210995341027, 42.709363306071907 ], [ -94.664186405577993, 42.655466812643454 ], [ -94.781079242812666, 42.660607918420851 ], [ -94.904837850786009, 42.519932144552968 ], [ -95.36024364322941, 42.32271468333613 ], [ -95.750915874168129, 42.029933834279177 ], [ -96.032994977935743, 41.72591212064799 ], [ -96.261070120189743, 41.530966657185672 ], [ -96.403703851251578, 41.446022102538166 ], [ -96.544273059953582, 41.423209227723873 ], [ -96.625817275246902, 41.384819814483023 ], [ -96.704755076285608, 41.288615352116949 ], [ -96.75115901377734, 41.118875426859631 ], [ -96.999855945095646, 40.901061164241526 ], [ -97.08056313078373, 40.722407505102467 ], [ -97.051574800336596, 40.587186253443008 ], [ -97.073278663579288, 40.419034064170887 ], [ -96.996233213291987, 40.38583649645733 ], [ -96.667864324778634, 40.465961202047993 ], [ -96.495026117261375, 40.381370143917195 ], [ -96.272127869305564, 40.54438328236273 ], [ -96.060839367142933, 40.612571509467728 ], [ -95.997269589519817, 40.575610766423893 ], [ -95.670486148217037, 40.597627802381339 ], [ -95.391510031962241, 40.479947772371986 ], [ -95.18266855720799, 40.443362437826408 ], [ -95.009657277860924, 40.481323155939037 ], [ -94.842640296512343, 40.558124927723384 ], [ -94.820259739295409, 40.580347994764338 ], [ -94.797514560948059, 40.789190213257882 ], [ -94.771821923842538, 40.801963856247141 ], [ -93.705864288106284, 41.087000308617519 ], [ -93.654930046384379, 41.131915193631471 ], [ -93.638909822929861, 41.264962012287185 ], [ -93.560810565954682, 41.332085476263899 ], [ -93.061174055837853, 41.350634828035027 ], [ -92.961811365102278, 41.305331261428762 ], [ -92.922595880495351, 41.325536944974203 ], [ -92.747388039426312, 41.456648201353573 ], [ -92.681353491670166, 41.555473016566623 ], [ -92.636819878734286, 42.011662092431777 ], [ -92.437111922277268, 42.017927473973884 ], [ -91.931752498079163, 41.95158219426304 ], [ -91.676306117033505, 42.050878450280436 ], [ -91.405935582860707, 42.216138203115747 ], [ -91.321593978679005, 42.351731221019179 ], [ -91.282596312569638, 42.604374964732983 ], [ -91.403825912735556, 43.279011134556356 ], [ -91.451968685806037, 43.469271122064811 ], [ -91.572007842587709, 43.578620660914908 ], [ -91.533896058156415, 43.612038719011821 ], [ -91.604445728687267, 43.666083435102621 ], [ -91.617313614331692, 43.776134734730363 ], [ -91.52951282365774, 43.789560262995906 ], [ -91.816464671906942, 43.927948273094501 ], [ -91.787832627673481, 43.942555152598402 ], [ -91.457783547472559, 44.004882433177897 ], [ -90.939168937396403, 43.99869214322797 ], [ -90.478571946937677, 44.066523137133231 ], [ -89.338276136834111, 44.354087506433416 ], [ -88.912679032810956, 44.330379407783596 ], [ -88.019213721735696, 44.492728955377174 ], [ -87.089583111671118, 44.578800822799906 ], [ -86.024375381018842, 44.912735044386977 ], [ -85.536151291948386, 45.017463643532494 ], [ -85.313031192935057, 44.940398969337139 ], [ -85.307999082291644, 44.795585833819359 ], [ -85.335484954067226, 44.730910641912772 ], [ -85.261918960991125, 44.658047864717332 ] ] ] } },
{ "type": "Feature", "properties": { "Study_Region_Name": "Central and Southwest", "Domain_Name": "Mazatzal", "Alternate_Name": "<Null>", "Crust_Type": "Lateral-extensional orogen", "Crust_Formation_Age": "1720-1650 Ma", "Accretion_Type": "<Null>", "Accretion_Age": "1.65-1.62 Ga", "Notes": "<Null>", "domain": "Mazatzal" }, "geometry": { "type": "Polygon", "coordinates": [ [ [ -87.989826866616454, 40.072753461203433 ], [ -88.579219885289319, 39.738826515131734 ], [ -89.412107393041595, 39.371170774511825 ], [ -90.293417821675007, 38.519073841384852 ], [ -90.810869591258495, 38.140207853609695 ], [ -91.271641626659573, 37.959650737991353 ], [ -92.413115034231282, 37.380344101699109 ], [ -92.869709393173821, 37.009211766410033 ], [ -93.905041634663576, 36.580711967383536 ], [ -94.724824472471255, 36.003711435634386 ], [ -95.413237674179186, 35.653578337570366 ], [ -95.765951984796118, 35.525904453727719 ], [ -96.254775751699412, 35.58528615603143 ], [ -97.000786841439435, 35.552006963150973 ], [ -97.424210703161293, 35.615851416210035 ], [ -97.542906610051887, 35.650776744351447 ], [ -97.779118761521488, 35.774357373793919 ], [ -98.130073243685104, 35.864862967252293 ], [ -98.679812648734583, 36.14465287822793 ], [ -99.389402442068899, 36.226099450529375 ], [ -100.543314966412424, 36.258887323091642 ], [ -100.916976668338407, 36.192992072226502 ], [ -101.582891631143696, 35.903431372559965 ], [ -102.144505467752992, 35.429519550487043 ], [ -102.249236435712817, 34.897492627682766 ], [ -102.213833522598861, 34.065086931716678 ], [ -102.344915491656479, 33.608296196812205 ], [ -102.646428563527252, 32.845037182220324 ], [ -102.809557540947594, 32.300680238502366 ], [ -103.269374786816797, 31.92197345950774 ], [ -103.794917355751238, 31.691191736509609 ], [ -104.350516881748547, 31.6194718123744 ], [ -104.940621084295458, 31.500835550320573 ], [ -105.360487536470487, 31.311174446543646 ], [ -105.518716367066531, 31.207296865058424 ], [ -105.579745557211538, 31.078413268957377 ], [ -105.770746271323219, 31.19876445991207 ], [ -105.8410403518306, 31.289666199335784 ], [ -105.971901302602873, 31.39022355577265 ], [ -106.209040745933521, 31.492729302415512 ], [ -106.333497287169905, 31.707868335555418 ], [ -106.395045934721963, 31.768015758420688 ], [ -106.495621939500779, 31.777599851452123 ], [ -106.530451884646595, 31.801922631324544 ], [ -108.20821952061425, 31.803882363780247 ], [ -108.207954510192337, 31.35360031929946 ], [ -110.616065583559703, 31.353444226669865 ], [ -110.934215017009251, 31.636819455853356 ], [ -111.121494644062409, 31.944395936823184 ], [ -111.394066697020321, 32.180059666420618 ], [ -111.671988623476068, 32.311447753011578 ], [ -112.434732700653456, 32.580877368795711 ], [ -112.722045531376011, 32.718331176642664 ], [ -112.906511518791433, 32.90466449746873 ], [ -112.867504457464577, 33.072971513124969 ], [ -112.765538874219544, 33.196554161545464 ], [ -112.623256069411923, 33.321194970271847 ], [ -112.241153843375002, 33.57661202982149 ], [ -111.287266762251136, 33.903671333665272 ], [ -110.103854504381729, 34.461525914189735 ], [ -109.346892435737175, 34.735461941015956 ], [ -108.825483941430605, 35.00180066516873 ], [ -108.572916399971746, 35.199555361590853 ], [ -107.712972977320874, 35.732245984065059 ], [ -107.523718877923727, 35.800148228558044 ], [ -106.928399571582815, 35.918219755937173 ], [ -106.88108407227196, 35.695336126461257 ], [ -106.713964944126701, 35.553847217075599 ], [ -106.465302053946459, 35.497304277870285 ], [ -106.001713817638404, 35.521353562217314 ], [ -105.84267837700537, 35.447881815393657 ], [ -105.761658089648961, 35.451789130464192 ], [ -105.371425705431818, 35.628804045870197 ], [ -104.753457686522893, 35.813542480201477 ], [ -104.422442078838742, 35.995598753979493 ], [ -104.048675427828584, 36.132005446094638 ], [ -103.731294987573449, 36.201441061655828 ], [ -102.335550739674773, 36.73082455051275 ], [ -100.24383738318852, 37.740098883556811 ], [ -99.005252037051719, 38.388623554333719 ], [ -98.540593884500026, 38.663040754427414 ], [ -98.425385682503077, 38.798432775652259 ], [ -98.307917102891849, 38.700398761293968 ], [ -98.306383518684299, 38.609805429077483 ], [ -98.268208912111447, 38.509762376932315 ], [ -98.061015162619526, 38.209595789813989 ], [ -98.031203836487691, 37.539306040741337 ], [ -97.966479954386216, 37.517723091347762 ], [ -97.55435880811234, 37.826541346306271 ], [ -97.439491522915318, 37.972121002782217 ], [ -97.37818358430485, 38.113697054675526 ], [ -97.288224848797597, 38.504891280908055 ], [ -97.140826265819385, 38.857499334826628 ], [ -96.800491798557516, 39.146220191808595 ], [ -96.459246545591441, 39.713773660226423 ], [ -96.458405996939064, 39.784974121558605 ], [ -96.533452072654882, 39.624136981836386 ], [ -96.586497267834488, 39.593508243011172 ], [ -96.545654113746195, 39.785398701389113 ], [ -96.471148566552927, 39.822054380005795 ], [ -96.528800336566121, 39.905986843917901 ], [ -96.485323512469961, 39.96905751489254 ], [ -96.345064291983363, 39.912720079768008 ], [ -95.886545813738167, 39.934591760101796 ], [ -95.03900698558374, 40.060853798264361 ], [ -94.774119861642134, 40.075783221418703 ], [ -94.621638879730369, 40.028975401094044 ], [ -94.378936443362022, 40.028089440275608 ], [ -94.077358829845991, 40.145846435165026 ], [ -92.698632144557678, 40.720079280834284 ], [ -92.076477482049995, 41.175322372429719 ], [ -91.490835125540457, 41.499695832996451 ], [ -90.605647856263431, 42.168323100730674 ], [ -89.985736067865105, 42.572121833555968 ], [ -89.32387007954037, 42.875592352705098 ], [ -88.852508992895537, 43.055927503051976 ], [ -88.551702876286583, 43.243646519971094 ], [ -88.335918282802368, 43.322517719017696 ], [ -87.796925784297343, 43.406373477054501 ], [ -86.748153701831711, 43.455371611510827 ], [ -86.134917860670555, 43.57533790971695 ], [ -85.754603233252453, 43.708336889835778 ], [ -85.379331996674182, 43.872531534203119 ], [ -84.039542117674443, 44.574213331580154 ], [ -83.535108410624503, 44.806643512788071 ], [ -83.024765851962343, 44.38806049389683 ], [ -82.463725134407298, 43.710263278127968 ], [ -82.404754183958289, 43.564908852361839 ], [ -82.338186872426093, 43.1791771675924 ], [ -82.463481852505311, 42.901382096806515 ], [ -82.472917864067995, 42.760827136063654 ], [ -82.511857041868836, 42.643092783405393 ], [ -84.009515521723813, 42.017554570986817 ], [ -86.141012499626981, 41.03722624989166 ], [ -87.989826866616454, 40.072753461203433 ] ] ] } },
{ "type": "Feature", "properties": { "Study_Region_Name": "Southeastern Laurentia and Appalachians", "Domain_Name": "Shawnee", "Alternate_Name": "Granite-rhyolite, Llano", "Crust_Type": "Lateral-extensional orogen", "Crust_Formation_Age": "1550-1350 Ma", "Accretion_Type": "in situ cratonization", "Accretion_Age": "1.45-1.35", "Notes": "New name for Granite/rhyolite (not in literature)", "domain": "Shawnee" }, "geometry": { "type": "Polygon", "coordinates": [ [ [ -74.850281822847705, 45.016664166018586 ], [ -74.249163912784184, 44.992218178126564 ], [ -73.100183552029137, 45.015229100742545 ], [ -73.120487999121735, 44.97574826936733 ], [ -73.11738413566917, 44.794000195952435 ], [ -73.193635891083375, 44.627298515114546 ], [ -73.239319303442926, 44.360086208411929 ], [ -73.237908434426572, 44.143143621780894 ], [ -73.328050531806468, 44.031830678543145 ], [ -73.391607752195853, 43.826317101852908 ], [ -73.365509227668554, 43.598529535809575 ], [ -73.396112080408045, 43.385125240037951 ], [ -73.555438974229105, 43.075594432437299 ], [ -73.573821801234999, 42.839046560450583 ], [ -73.666356347966939, 42.744014769965816 ], [ -73.716901065431671, 42.495189477512554 ], [ -73.768945594863169, 42.441415226231868 ], [ -73.779134170805207, 42.310839783229596 ], [ -74.28480688103258, 42.175314145231766 ], [ -75.769126394167586, 41.701402760229371 ], [ -76.70963831355715, 41.359741234470562 ], [ -77.731550973998083, 40.846176858175625 ], [ -79.622828304482539, 39.507626105560462 ], [ -80.47518846017914, 38.788666422417634 ], [ -82.650031383841167, 37.057740798299392 ], [ -83.708175630500818, 36.17880449263339 ], [ -83.909266300898935, 36.084694044994365 ], [ -83.986322298435198, 35.908295520422087 ], [ -84.311224615223637, 35.691966509746806 ], [ -85.039091765772241, 35.445822483920665 ], [ -85.22743672432523, 35.306724919519581 ], [ -85.413889405871259, 35.106006197028535 ], [ -85.579635871797905, 35.014292924678898 ], [ -85.982893777525646, 34.696014630071261 ], [ -86.261427642271713, 34.585749126321275 ], [ -86.618829819240602, 34.290095642100368 ], [ -88.77037551391868, 33.168404637764013 ], [ -89.272873458143408, 33.637746682563488 ], [ -89.650696664019677, 33.950173238804098 ], [ -90.087765422935774, 34.109021141112919 ], [ -90.639263009779938, 34.367312142541493 ], [ -91.334709338864741, 34.592751119168952 ], [ -91.808569918466787, 34.830407247296819 ], [ -92.297992803824684, 34.934168757782118 ], [ -93.273672718121304, 34.776839953401293 ], [ -93.718238992735166, 34.677509831613577 ], [ -94.1334995121926, 34.626373946600495 ], [ -94.922076556687614, 34.374321409105903 ], [ -95.893651722348977, 33.835668369599716 ], [ -96.265974887730749, 33.518838553656508 ], [ -96.477822865332826, 33.155287111111477 ], [ -96.741290897756585, 32.998091786806697 ], [ -96.967543920015771, 32.829143478089236 ], [ -97.183012273197676, 32.587607675553954 ], [ -97.344046503842947, 32.087704192694503 ], [ -97.167276518796143, 31.128552011766089 ], [ -97.080882756134145, 30.830308001613162 ], [ -97.103805218735715, 29.962476673859555 ], [ -97.153715640764062, 29.852168441520519 ], [ -97.265669814110481, 29.707683716830218 ], [ -97.4328275024871, 29.554037599355865 ], [ -97.73591017551405, 29.407593520824491 ], [ -97.875810684315468, 29.38962804220057 ], [ -98.088252849389335, 29.37510157377875 ], [ -98.444993179291657, 29.422772606570675 ], [ -99.052440454063571, 29.456313426623524 ], [ -99.532532177118128, 29.438586929343501 ], [ -99.861312073793044, 29.370935272844747 ], [ -100.20718801151736, 29.353114616546463 ], [ -100.387569864557463, 29.403377844412148 ], [ -100.711308098889504, 29.543903100547823 ], [ -101.166267014610867, 29.859853641232746 ], [ -101.354331807366862, 29.944183629770862 ], [ -101.559738490638665, 29.995111057329609 ], [ -102.173696133069939, 30.064229634889898 ], [ -102.329375381168745, 30.148860104010737 ], [ -102.737162146815479, 30.294788179431123 ], [ -102.865959074351679, 30.315336825734107 ], [ -102.946977889517825, 30.238659556093808 ], [ -103.006039792901959, 29.918057506848641 ], [ -103.069066374613328, 29.772562892963322 ], [ -103.293777198958423, 29.690865985377116 ], [ -103.431481168520975, 29.548295545902874 ], [ -103.531560136890675, 29.484612923148063 ], [ -103.567190226847345, 29.413126427043153 ], [ -103.572834659791567, 29.257479138151893 ], [ -103.606184317252314, 29.173718034659714 ], [ -103.887944977378652, 29.306266493104317 ], [ -104.044092005141749, 29.35127247224699 ], [ -104.227176016060127, 29.514897118207614 ], [ -104.418038049316351, 29.589903820704933 ], [ -104.540703250754291, 29.693381139128405 ], [ -104.676965131335578, 29.961440671949617 ], [ -104.700227844339395, 30.079350514714633 ], [ -104.681127051671922, 30.207967838645004 ], [ -104.821147613671258, 30.406581462264853 ], [ -104.895446431907146, 30.586719834652797 ], [ -105.168414356537198, 30.799092382307776 ], [ -105.392076539000925, 30.886325930097769 ], [ -105.579745557211538, 31.078413268957377 ], [ -105.518716367066531, 31.207296865058424 ], [ -105.360487536470487, 31.311174446543646 ], [ -104.940621084295458, 31.500835550320573 ], [ -104.350516881748547, 31.6194718123744 ], [ -103.794917355751238, 31.691191736509609 ], [ -103.269374786816797, 31.92197345950774 ], [ -102.809557540947594, 32.300680238502366 ], [ -102.646428563527252, 32.845037182220324 ], [ -102.344915491656479, 33.608296196812205 ], [ -102.213833522598861, 34.065086931716678 ], [ -102.249236435712817, 34.897492627682766 ], [ -102.144505467752992, 35.429519550487043 ], [ -101.582891631143696, 35.903431372559965 ], [ -100.916976668338407, 36.192992072226502 ], [ -100.543314966412424, 36.258887323091642 ], [ -99.389402442068899, 36.226099450529375 ], [ -98.679812648734583, 36.14465287822793 ], [ -98.130073243685104, 35.864862967252293 ], [ -97.779118761521488, 35.774357373793919 ], [ -97.542906610051887, 35.650776744351447 ], [ -97.424210703161293, 35.615851416210035 ], [ -97.000786841439435, 35.552006963150973 ], [ -96.254775751699412, 35.58528615603143 ], [ -95.765951984796118, 35.525904453727719 ], [ -95.413237674179186, 35.653578337570366 ], [ -94.724824472471255, 36.003711435634386 ], [ -93.905041634663576, 36.580711967383536 ], [ -92.869709393173821, 37.009211766410033 ], [ -92.413115034231282, 37.380344101699109 ], [ -91.271641626659573, 37.959650737991353 ], [ -90.810869591258495, 38.140207853609695 ], [ -90.293417821675007, 38.519073841384852 ], [ -89.412107393041595, 39.371170774511825 ], [ -88.579219885289319, 39.738826515131734 ], [ -87.989826866616454, 40.072753461203433 ], [ -86.141012499626981, 41.03722624989166 ], [ -84.009515521723813, 42.017554570986817 ], [ -82.514610476392193, 42.635364481885517 ], [ -82.579035943653707, 42.563745122639489 ], [ -82.662654983940229, 42.545300073339888 ], [ -82.801245897280182, 42.41804518094051 ], [ -83.084545844215199, 42.299354079127625 ], [ -83.134854361939119, 42.211104624778784 ], [ -83.168608957137508, 42.046109123337544 ], [ -83.076390922303062, 41.86735414118084 ], [ -82.696654833253774, 41.683873106558792 ], [ -82.425281831990787, 41.675554067366477 ], [ -81.249163852929314, 42.224991174303398 ], [ -80.09153584969954, 42.398191134113688 ], [ -78.986935956329148, 42.81999113498307 ], [ -78.934154944195143, 42.865964197389985 ], [ -78.920345926123446, 42.936245114520602 ], [ -79.013754861197754, 42.982209125251075 ], [ -79.081117870393257, 43.085545082839474 ], [ -79.04486396030336, 43.163045165602057 ], [ -79.053745927432431, 43.259582059664467 ], [ -79.184717859041825, 43.465545202049611 ], [ -78.663054858394844, 43.637500114338991 ], [ -76.809445916895413, 43.633327099066548 ], [ -76.410281916676979, 44.121100054024453 ], [ -76.061099875059028, 44.343182099774253 ], [ -75.872081923242035, 44.398045176443929 ], [ -75.736117898122359, 44.54639111695667 ], [ -75.309717909953406, 44.841936185206976 ], [ -74.996117886830859, 44.983600072085835 ], [ -74.850281822847705, 45.016664166018586 ] ] ] } },
{ "type": "Feature", "properties": { "Study_Region_Name": "Gulf Coast", "Domain_Name": "Sabine", "Alternate_Name": "<Null>", "Crust_Type": "Continental arc", "Crust_Formation_Age": "360-299 Ma", "Accretion_Type": "Collisional", "Accretion_Age": "325-309 Ma", "Notes": "Late Paleozoic Gondwana microcontinent origin; includes Sabine volcanic arc and Yucatan platform", "domain": "Sabine" }, "geometry": { "type": "Polygon", "coordinates": [ [ [ -90.166104128902305, 30.042810212821223 ], [ -90.029966394333485, 30.055984526265036 ], [ -89.807821836708229, 30.118457163367566 ], [ -89.669383519433723, 30.186421057286111 ], [ -89.638493149838837, 30.152463120876519 ], [ -89.715038479042448, 30.077335767132126 ], [ -89.801584673193986, 30.063592475112785 ], [ -89.839653243402324, 30.026379188049248 ], [ -89.813758288514066, 29.964775869810694 ], [ -89.679506251512123, 29.898304283915763 ], [ -89.621578042492501, 29.892670119430647 ], [ -89.472142388060604, 30.093860317799567 ], [ -89.395259494729771, 30.070068655044565 ], [ -89.329584878139485, 29.897424324273288 ], [ -89.400035918222898, 29.78174217865876 ], [ -89.425578177890429, 29.82757245030848 ], [ -89.47225611003131, 29.851542357793733 ], [ -89.658437445431616, 29.685656628250968 ], [ -89.748669296051048, 29.652267814308345 ], [ -89.673736569087225, 29.544967618161195 ], [ -89.515098861722947, 29.481747723578735 ], [ -89.460107299811909, 29.42229484443169 ], [ -89.251752296231359, 29.353941398377003 ], [ -89.183101455167844, 29.358932633934046 ], [ -89.005201169797999, 29.215573952176328 ], [ -89.038258763431031, 29.129605183932256 ], [ -89.149818448262636, 29.059210469287905 ], [ -89.24538094127729, 29.115331605769143 ], [ -89.395827603660848, 28.94972593230608 ], [ -89.393492662356323, 28.993823332680847 ], [ -89.267958101984675, 29.168870529651372 ], [ -89.320254179886319, 29.197277062586522 ], [ -89.327350229229523, 29.120897029674325 ], [ -89.38555372162682, 29.111322365135209 ], [ -89.474574061343731, 29.252860681475454 ], [ -89.604386533911281, 29.270376863301749 ], [ -89.766566748156777, 29.358452138755354 ], [ -89.746822479773471, 29.379839634891425 ], [ -89.769326967165625, 29.434142408745345 ], [ -90.17854381584425, 29.589192676401069 ], [ -90.199324872144985, 29.564059216160047 ], [ -90.168136938468763, 29.507391410585285 ], [ -90.054784000081384, 29.478905593418574 ], [ -90.022564398328143, 29.44445571346057 ], [ -90.053007365097699, 29.331268375335412 ], [ -90.047666036058558, 29.240849784090415 ], [ -90.13194216060208, 29.145715082385323 ], [ -90.236547513057133, 29.105454714163898 ], [ -90.268892617000517, 29.279067688523185 ], [ -90.341116418687648, 29.328522440258553 ], [ -90.440578700346578, 29.345479437126471 ], [ -90.520599534240944, 29.309097988781332 ], [ -90.698232456562494, 29.135228177938245 ], [ -90.874572723951871, 29.14816684832158 ], [ -90.995145600488911, 29.238672002910789 ], [ -91.073919298636554, 29.214299236021077 ], [ -91.274220090884342, 29.275304456535594 ], [ -91.33561245515051, 29.344193492935517 ], [ -91.219602787238671, 29.380016125044278 ], [ -91.15841476422986, 29.349246121611372 ], [ -91.169752452513535, 29.293065380762869 ], [ -91.145514576736161, 29.268889498851479 ], [ -91.113979565004797, 29.281949874487282 ], [ -91.110696367743003, 29.344867579775155 ], [ -91.263495071140483, 29.486403130700069 ], [ -91.411294396519054, 29.559757223717043 ], [ -91.539645709981357, 29.562271836975867 ], [ -91.553445229413683, 29.649982310535393 ], [ -91.627333273311763, 29.758535657095081 ], [ -91.895508038065373, 29.855647817792715 ], [ -92.145011807848505, 29.788457440658533 ], [ -92.172237579500518, 29.709842372127923 ], [ -92.096133700509711, 29.635115028735754 ], [ -92.269651047257867, 29.560553071567142 ], [ -92.684296216397115, 29.619897975411391 ], [ -93.034081016025937, 29.758825940265069 ], [ -93.23743260273227, 29.804683036892811 ], [ -93.716012411643305, 29.778895816289037 ], [ -93.820203620900259, 29.727933395210187 ], [ -93.884866327518864, 29.762589711845862 ], [ -93.855176940463309, 29.701372791821029 ], [ -94.065129201151535, 29.69393068875047 ], [ -94.504611574964088, 29.533467117513624 ], [ -94.473469343035617, 29.578688385360863 ], [ -94.762769867035558, 29.587887892312551 ], [ -94.727339401392101, 29.632739465054442 ], [ -94.703568436533942, 29.730937249554586 ], [ -94.707945458515951, 29.776628591236658 ], [ -94.753923084982262, 29.804833009635843 ], [ -94.952510420519332, 29.715678566612723 ], [ -95.057037815242836, 29.73492540468385 ], [ -95.012819309463396, 29.585411289799367 ], [ -94.884489397167783, 29.405118343736717 ], [ -94.899783147374194, 29.334291684713662 ], [ -95.08399001492711, 29.201799790028474 ], [ -95.145680693309203, 29.071114503831438 ], [ -95.329078574816208, 28.932659208256041 ], [ -95.615523711749745, 28.775465958687221 ], [ -95.794459979244493, 28.75686392283194 ], [ -95.938375241524, 28.706358462573178 ], [ -95.938791160883227, 28.646258576971888 ], [ -95.993804012445082, 28.623827352850242 ], [ -95.9879616027456, 28.670980752060245 ], [ -96.214757502556552, 28.601909270196813 ], [ -96.138110870120386, 28.647248797993825 ], [ -96.189395031755168, 28.715444171111756 ], [ -96.264692607377754, 28.705104650259557 ], [ -96.44026277270865, 28.780256399013751 ], [ -96.406034010860765, 28.655462568842665 ], [ -96.372902054086353, 28.641986868299512 ], [ -96.408892157047262, 28.62136288039278 ], [ -96.552587501811615, 28.667765914065853 ], [ -96.559947516564478, 28.717557548242439 ], [ -96.592105305215512, 28.739223086876109 ], [ -96.642124775437878, 28.731936325501181 ], [ -96.648719737825502, 28.705554831090751 ], [ -96.581292794926412, 28.586931220699455 ], [ -96.397353461293051, 28.461706935426889 ], [ -96.656752114518326, 28.335210488973075 ], [ -96.694457154473923, 28.35409568806574 ], [ -96.704525308496045, 28.417705440553789 ], [ -96.79778896978496, 28.491531189313093 ], [ -96.842686065309522, 28.429870875640574 ], [ -96.781280957649926, 28.36896579103859 ], [ -96.778309669555483, 28.261393542777967 ], [ -96.880267540214675, 28.160292820457471 ], [ -96.980860282276069, 28.141137099897435 ], [ -97.013637956526338, 28.155857696875387 ], [ -97.025589892559367, 28.206413605503656 ], [ -97.166927906497563, 28.181842985065884 ], [ -97.211045735871835, 28.088582397659707 ], [ -97.142977445052907, 28.054068095666253 ], [ -97.043648139849608, 28.111697038187913 ], [ -97.020040803040501, 28.051695127428331 ], [ -97.192103291333694, 27.841844985657701 ], [ -97.490134794385085, 27.898122384740418 ], [ -97.514740817534573, 27.883888303002948 ], [ -97.390407808073746, 27.803396584085249 ], [ -97.277353722496173, 27.676160794185478 ], [ -97.41067490901969, 27.347353231666489 ], [ -97.487699827784695, 27.326313283031766 ], [ -97.522981351308147, 27.397288948026699 ], [ -97.622411594619223, 27.364878607262085 ], [ -97.767072702443102, 27.469807625721501 ], [ -97.631622224385978, 27.272579306090279 ], [ -97.531605894696156, 27.255344600373178 ], [ -97.427057344320815, 27.282354529338249 ], [ -97.472733333676274, 27.050894010650211 ], [ -97.55515956716016, 27.025555371883058 ], [ -97.563300308562248, 27.001874108103777 ], [ -97.558166990913776, 26.862155597802769 ], [ -97.489696853326961, 26.810341413525578 ], [ -97.420808530988779, 26.565616992730213 ], [ -97.399722105390708, 26.38950636093 ], [ -97.367206831729732, 26.385194843767181 ], [ -97.316391708810158, 26.266163800918832 ], [ -97.305001759123741, 26.142826885052841 ], [ -97.238559327450844, 26.001984705130212 ], [ -97.207088764734578, 26.012537202530041 ], [ -97.165647143300873, 26.09017882958949 ], [ -97.138656106394023, 25.99311767394164 ], [ -97.313096048743489, 25.940054531891292 ], [ -97.362548198740228, 25.859912505358011 ], [ -97.415056820615632, 25.863389575768451 ], [ -97.512287062297958, 25.91839718338349 ], [ -97.645906227490229, 26.049525436949523 ], [ -97.845391290575435, 26.083704592193328 ], [ -98.058067056349444, 26.059002452201582 ], [ -98.197951864786603, 26.08262191456987 ], [ -98.303238767554944, 26.129293504691645 ], [ -98.437842836077891, 26.243466268653549 ], [ -98.602731447697977, 26.276815047476646 ], [ -98.782200580592189, 26.369054757771039 ], [ -99.102803218893314, 26.455185783497257 ], [ -99.251406086721374, 26.851022790369655 ], [ -99.269187850938408, 26.8801239353715 ], [ -99.317314613378528, 26.89005416576731 ], [ -99.456696832092973, 27.067154381869386 ], [ -99.441404552278129, 27.278262338836043 ], [ -99.501943896993112, 27.58826630314752 ], [ -99.604238729233828, 27.661463902437333 ], [ -99.694472073627139, 27.677169861400159 ], [ -99.800532621782907, 27.789436050033828 ], [ -99.831014814282128, 27.794533426276757 ], [ -99.858999677592919, 27.825371211612264 ], [ -99.87892239305387, 27.924127550646119 ], [ -100.07643931951884, 28.175866873157815 ], [ -100.184520497722644, 28.217755542184705 ], [ -100.279596069003219, 28.300815260815796 ], [ -100.357301353674359, 28.538592917029689 ], [ -100.478003460091486, 28.696109161708591 ], [ -100.525501275363411, 28.843048915974862 ], [ -100.632602845444808, 28.978891322176935 ], [ -100.663978548571038, 29.129311097529296 ], [ -100.793865953550778, 29.279036662811905 ], [ -100.935133179152729, 29.370299660800868 ], [ -101.041191099489481, 29.48180555358357 ], [ -101.13724419965996, 29.511001872938266 ], [ -101.309069755264829, 29.635593349353769 ], [ -101.354075522167477, 29.680876834998116 ], [ -101.403250585645878, 29.793107463538774 ], [ -101.627051379717273, 29.786728274590359 ], [ -101.824160942972981, 29.825065373368432 ], [ -102.071157602541177, 29.818550795982617 ], [ -102.30022546143573, 29.908353105211802 ], [ -102.494717920195683, 29.802044263232347 ], [ -102.668791705372769, 29.763161300253955 ], [ -102.894421234851961, 29.274562503257073 ], [ -103.162334869758297, 29.004437162045576 ], [ -103.373683407063425, 29.044028077633868 ], [ -103.606184317252314, 29.173718034659714 ], [ -103.572834659791567, 29.257479138151893 ], [ -103.567190226847345, 29.413126427043153 ], [ -103.531560136890675, 29.484612923148063 ], [ -103.431481168520975, 29.548295545902874 ], [ -103.293777198958423, 29.690865985377116 ], [ -103.069066374613328, 29.772562892963322 ], [ -103.006039792901959, 29.918057506848641 ], [ -102.946977889517825, 30.238659556093808 ], [ -102.865959074351679, 30.315336825734107 ], [ -102.737162146815479, 30.294788179431123 ], [ -102.329375381168745, 30.148860104010737 ], [ -102.173696133069939, 30.064229634889898 ], [ -101.559738490638665, 29.995111057329609 ], [ -101.354331807366862, 29.944183629770862 ], [ -101.166267014610867, 29.859853641232746 ], [ -100.711308098889504, 29.543903100547823 ], [ -100.387569864557463, 29.403377844412148 ], [ -100.20718801151736, 29.353114616546463 ], [ -99.861312073793044, 29.370935272844747 ], [ -99.532532177118128, 29.438586929343501 ], [ -99.052440454063571, 29.456313426623524 ], [ -98.444993179291657, 29.422772606570675 ], [ -98.088252849389335, 29.37510157377875 ], [ -97.73591017551405, 29.407593520824491 ], [ -97.592163589178142, 29.463322158091273 ], [ -97.4328275024871, 29.554037599355865 ], [ -97.265669814110481, 29.707683716830218 ], [ -97.153715640764062, 29.852168441520519 ], [ -97.103805218735715, 29.962476673859555 ], [ -97.080882756134145, 30.830308001613162 ], [ -97.167276518796143, 31.128552011766089 ], [ -97.344046503842947, 32.087704192694503 ], [ -97.183012273197676, 32.587607675553954 ], [ -96.967543920015771, 32.829143478089236 ], [ -96.741290897756585, 32.998091786806697 ], [ -96.477822865332826, 33.155287111111477 ], [ -96.265974887730749, 33.518838553656508 ], [ -95.893651722348977, 33.835668369599716 ], [ -94.922076556687614, 34.374321409105903 ], [ -94.1334995121926, 34.626373946600495 ], [ -93.718238992735166, 34.677509831613577 ], [ -93.273672718121304, 34.776839953401293 ], [ -92.297992803824684, 34.934168757782118 ], [ -91.808569918466787, 34.830407247296819 ], [ -91.334709338864741, 34.592751119168952 ], [ -90.639263009779938, 34.367312142541493 ], [ -90.087765422935774, 34.109021141112919 ], [ -89.650696664019677, 33.950173238804098 ], [ -89.272873458143408, 33.637746682563488 ], [ -88.77037551391868, 33.168404637764013 ], [ -88.602259359581637, 32.592232743146724 ], [ -88.336605573488271, 31.461079619029363 ], [ -88.75946061401595, 31.1262580273862 ], [ -89.485451137559778, 30.637395101303071 ], [ -89.92321182496562, 30.396836273675262 ], [ -90.410987062402853, 30.222839871562996 ], [ -90.42654435174029, 30.171168649813524 ], [ -90.40863955307276, 30.117275552225124 ], [ -90.345724033137458, 30.081022947950828 ], [ -90.166104128902305, 30.042810212821223 ] ] ] } }
]
}
